{
    "links": {
        "self": "http://www.neowsapp.com/rest/v1/neo/3666234?api_key=iIulBulltgU6a56xZRHN4H3l9WmuAYTsLGpBGhQ2"
    },
    "id": "3666234",
    "neo_reference_id": "3666234",
    "name": "(2014 FD)",
    "designation": "2014 FD",
    "nasa_jpl_url": "http://ssd.jpl.nasa.gov/sbdb.cgi?sstr=3666234",
    "absolute_magnitude_h": 25.5,
    "estimated_diameter": {
        "kilometers": {
            "estimated_diameter_min": 0.0211132445,
            "estimated_diameter_max": 0.0472106499
        },
        "meters": {
            "estimated_diameter_min": 21.113244479,
            "estimated_diameter_max": 47.2106498806
        },
        "miles": {
            "estimated_diameter_min": 0.0131191578,
            "estimated_diameter_max": 0.0293353287
        },
        "feet": {
            "estimated_diameter_min": 69.2691770164,
            "estimated_diameter_max": 154.8905885541
        }
    },
    "is_potentially_hazardous_asteroid": false,
    "close_approach_data": [
        {
            "close_approach_date": "2014-03-25",
            "close_approach_date_full": "2014-Mar-25 04:33",
            "epoch_date_close_approach": 1395721980000,
            "relative_velocity": {
                "kilometers_per_second": "8.4417934601",
                "kilometers_per_hour": "30390.4564563107",
                "miles_per_hour": "18883.447790867"
            },
            "miss_distance": {
                "astronomical": "0.0116334517",
                "lunar": "4.5254127113",
                "kilometers": "1740339.595067879",
                "miles": "1081396.8793355702"
            },
            "orbiting_body": "Earth"
        }
    ],
    "orbital_data": {
        "orbit_id": "9",
        "orbit_determination_date": "2017-08-10 06:18:02",
        "first_observation_date": "2014-03-20",
        "last_observation_date": "2014-03-26",
        "data_arc_in_days": 6,
        "observations_used": 82,
        "orbit_uncertainty": "7",
        "minimum_orbit_intersection": ".0100157",
        "jupiter_tisserand_invariant": "3.818",
        "epoch_osculation": "2459000.5",
        "eccentricity": ".4801255162731943",
        "semi_major_axis": "1.878350707426688",
        "inclination": "6.197005177085649",
        "ascending_node_longitude": "178.4836991760531",
        "orbital_period": "940.2935369055032",
        "perihelion_distance": ".9765066042813294",
        "perihelion_argument": "27.54417032950903",
        "aphelion_distance": "2.780194810572046",
        "perihelion_time": "2458640.784431385028",
        "mean_anomaly": "137.7204028516089",
        "mean_motion": ".3828591667074055",
        "equinox": "J2000",
        "orbit_class": {
            "orbit_class_type": "APO",
            "orbit_class_description": "Near-Earth asteroid orbits which cross the Earth’s orbit similar to that of 1862 Apollo",
            "orbit_class_range": "a (semi-major axis) > 1.0 AU; q (perihelion) < 1.017 AU"
        }
    },
    "is_sentry_object": false
}